{"fetched_at":"2026-07-21T07:06:51.702Z","source":"https://celestrak.org/NORAD/elements/gp.php?NAME=GLOBAL&FORMAT=JSON","constellation":"blacksky-gen2","records":[{"OBJECT_NAME":"GLOBAL-2","OBJECT_ID":"2018-099BG","EPOCH":"2026-07-20T19:58:38.343072","CLASSIFICATION_TYPE":"U","MEAN_MOTION":15.08847502,"ECCENTRICITY":0.00070324,"INCLINATION":97.3546,"RA_OF_ASC_NODE":236.9472,"ARG_OF_PERICENTER":51.6762,"MEAN_ANOMALY":308.5098,"EPHEMERIS_TYPE":0,"NORAD_CAT_ID":43812,"ELEMENT_SET_NO":999,"REV_AT_EPOCH":41698,"BSTAR":0.00013416569,"MEAN_MOTION_DOT":0.00002053,"MEAN_MOTION_DDOT":0},{"OBJECT_NAME":"GLOBAL-4","OBJECT_ID":"2019-054E","EPOCH":"2026-07-20T18:11:36.136896","CLASSIFICATION_TYPE":"U","MEAN_MOTION":15.67533507,"ECCENTRICITY":0.00061368,"INCLINATION":45.0055,"RA_OF_ASC_NODE":42.2271,"ARG_OF_PERICENTER":231.9789,"MEAN_ANOMALY":128.0556,"EPHEMERIS_TYPE":0,"NORAD_CAT_ID":44499,"ELEMENT_SET_NO":999,"REV_AT_EPOCH":38562,"BSTAR":0.00041109944,"MEAN_MOTION_DOT":0.00045721,"MEAN_MOTION_DDOT":0},{"OBJECT_NAME":"GLOBAL-9","OBJECT_ID":"2021-023G","EPOCH":"2026-07-20T19:49:56.672832","CLASSIFICATION_TYPE":"U","MEAN_MOTION":15.47761521,"ECCENTRICITY":0.00041492,"INCLINATION":44.9814,"RA_OF_ASC_NODE":61.2756,"ARG_OF_PERICENTER":204.9069,"MEAN_ANOMALY":155.1622,"EPHEMERIS_TYPE":0,"NORAD_CAT_ID":47971,"ELEMENT_SET_NO":999,"REV_AT_EPOCH":30015,"BSTAR":0.00030918581,"MEAN_MOTION_DOT":0.00016061,"MEAN_MOTION_DDOT":0},{"OBJECT_NAME":"GLOBAL-14","OBJECT_ID":"2021-106A","EPOCH":"2026-07-18T18:16:08.699520","CLASSIFICATION_TYPE":"U","MEAN_MOTION":15.51942274,"ECCENTRICITY":0.00182515,"INCLINATION":42.0036,"RA_OF_ASC_NODE":103.2309,"ARG_OF_PERICENTER":247.4363,"MEAN_ANOMALY":112.455,"EPHEMERIS_TYPE":0,"NORAD_CAT_ID":49469,"ELEMENT_SET_NO":999,"REV_AT_EPOCH":26303,"BSTAR":0.00024419325,"MEAN_MOTION_DOT":0.00014858,"MEAN_MOTION_DDOT":0},{"OBJECT_NAME":"GLOBAL-12","OBJECT_ID":"2021-115BA","EPOCH":"2026-07-20T19:46:52.652064","CLASSIFICATION_TYPE":"U","MEAN_MOTION":15.55534494,"ECCENTRICITY":0.00030432,"INCLINATION":53.1934,"RA_OF_ASC_NODE":242.5498,"ARG_OF_PERICENTER":78.3409,"MEAN_ANOMALY":281.7945,"EPHEMERIS_TYPE":0,"NORAD_CAT_ID":49772,"ELEMENT_SET_NO":999,"REV_AT_EPOCH":26113,"BSTAR":0.00028935971,"MEAN_MOTION_DOT":0.00019706,"MEAN_MOTION_DDOT":0},{"OBJECT_NAME":"GLOBAL-13","OBJECT_ID":"2021-115BB","EPOCH":"2026-07-20T09:33:07.563744","CLASSIFICATION_TYPE":"U","MEAN_MOTION":15.4722846,"ECCENTRICITY":0.00001783,"INCLINATION":53.1962,"RA_OF_ASC_NODE":256.5616,"ARG_OF_PERICENTER":104.821,"MEAN_ANOMALY":255.2819,"EPHEMERIS_TYPE":0,"NORAD_CAT_ID":49773,"ELEMENT_SET_NO":999,"REV_AT_EPOCH":26090,"BSTAR":0.00020371291,"MEAN_MOTION_DOT":0.00010112,"MEAN_MOTION_DDOT":0},{"OBJECT_NAME":"GLOBAL-17","OBJECT_ID":"2021-120A","EPOCH":"2026-07-20T17:16:48.889056","CLASSIFICATION_TYPE":"U","MEAN_MOTION":15.53891059,"ECCENTRICITY":0.00138094,"INCLINATION":41.9933,"RA_OF_ASC_NODE":209.2141,"ARG_OF_PERICENTER":134.0057,"MEAN_ANOMALY":226.1929,"EPHEMERIS_TYPE":0,"NORAD_CAT_ID":49949,"ELEMENT_SET_NO":999,"REV_AT_EPOCH":26011,"BSTAR":0.00025211922,"MEAN_MOTION_DOT":0.00016447,"MEAN_MOTION_DDOT":0},{"OBJECT_NAME":"GLOBAL-16","OBJECT_ID":"2021-120B","EPOCH":"2026-07-20T17:11:10.519008","CLASSIFICATION_TYPE":"U","MEAN_MOTION":15.51634527,"ECCENTRICITY":0.0011707,"INCLINATION":41.9932,"RA_OF_ASC_NODE":213.6221,"ARG_OF_PERICENTER":123.8693,"MEAN_ANOMALY":236.3267,"EPHEMERIS_TYPE":0,"NORAD_CAT_ID":49950,"ELEMENT_SET_NO":999,"REV_AT_EPOCH":26005,"BSTAR":0.00023976428,"MEAN_MOTION_DOT":0.00014361,"MEAN_MOTION_DDOT":0},{"OBJECT_NAME":"GLOBAL-18","OBJECT_ID":"2022-034B","EPOCH":"2026-07-20T22:00:06.577056","CLASSIFICATION_TYPE":"U","MEAN_MOTION":15.47390374,"ECCENTRICITY":0.00046698,"INCLINATION":52.9811,"RA_OF_ASC_NODE":95.2958,"ARG_OF_PERICENTER":39.6403,"MEAN_ANOMALY":320.4943,"EPHEMERIS_TYPE":0,"NORAD_CAT_ID":52196,"ELEMENT_SET_NO":999,"REV_AT_EPOCH":24218,"BSTAR":0.0003574498,"MEAN_MOTION_DOT":0.00018202,"MEAN_MOTION_DDOT":0},{"OBJECT_NAME":"GLOBAL-19","OBJECT_ID":"2023-041B","EPOCH":"2026-07-19T21:12:46.655712","CLASSIFICATION_TYPE":"U","MEAN_MOTION":15.38760174,"ECCENTRICITY":0.00101827,"INCLINATION":42.0026,"RA_OF_ASC_NODE":11.1059,"ARG_OF_PERICENTER":247.3158,"MEAN_ANOMALY":112.6606,"EPHEMERIS_TYPE":0,"NORAD_CAT_ID":55982,"ELEMENT_SET_NO":999,"REV_AT_EPOCH":18696,"BSTAR":0.00022396406,"MEAN_MOTION_DOT":0.0000853,"MEAN_MOTION_DDOT":0},{"OBJECT_NAME":"GLOBAL-5","OBJECT_ID":"2023-041C","EPOCH":"2026-07-20T18:14:47.636448","CLASSIFICATION_TYPE":"U","MEAN_MOTION":15.38791105,"ECCENTRICITY":0.0009177,"INCLINATION":42.002,"RA_OF_ASC_NODE":5.5142,"ARG_OF_PERICENTER":248.2915,"MEAN_ANOMALY":111.6948,"EPHEMERIS_TYPE":0,"NORAD_CAT_ID":55983,"ELEMENT_SET_NO":999,"REV_AT_EPOCH":18710,"BSTAR":0.00023863116,"MEAN_MOTION_DOT":0.00009114,"MEAN_MOTION_DDOT":0}]}
