GLOBAL-2                
1 43812U 18099BG  26201.83238823  .00002053  00000+0  13417-3 0  9991
2 43812  97.3546 236.9472 0007032  51.6762 308.5098 15.08847502416987
GLOBAL-4                
1 44499U 19054E   26201.75805714  .00045721  00000+0  41110-3 0  9995
2 44499  45.0055  42.2271 0006136 231.9789 128.0556 15.67533507385627
GLOBAL-9                
1 47971U 21023G   26201.82635038  .00016061  00000+0  30919-3 0  9990
2 47971  44.9814  61.2756 0004149 204.9069 155.1622 15.47761521300155
GLOBAL-14               
1 49469U 21106A   26199.76121180  .00014858  00000+0  24419-3 0  9993
2 49469  42.0036 103.2309 0018251 247.4363 112.4550 15.51942274263035
GLOBAL-12               
1 49772U 21115BA  26201.82422051  .00019706  00000+0  28936-3 0  9997
2 49772  53.1934 242.5498 0003043  78.3409 281.7945 15.55534494261135
GLOBAL-13               
1 49773U 21115BB  26201.39800421  .00010112  00000+0  20371-3 0  9998
2 49773  53.1962 256.5616 0000178 104.8210 255.2819 15.47228460260909
GLOBAL-17               
1 49949U 21120A   26201.72001029  .00016447  00000+0  25212-3 0  9999
2 49949  41.9933 209.2141 0013809 134.0057 226.1929 15.53891059260113
GLOBAL-16               
1 49950U 21120B   26201.71609397  .00014361  00000+0  23976-3 0  9990
2 49950  41.9932 213.6221 0011707 123.8693 236.3267 15.51634527260053
GLOBAL-18               
1 52196U 22034B   26201.91674279  .00018202  00000+0  35745-3 0  9999
2 52196  52.9811  95.2958 0004669  39.6403 320.4943 15.47390374242184
GLOBAL-19               
1 55982U 23041B   26200.88387333  .00008530  00000+0  22396-3 0  9992
2 55982  42.0026  11.1059 0010182 247.3158 112.6606 15.38760174186968
GLOBAL-5                
1 55983U 23041C   26201.76027357  .00009114  00000+0  23863-3 0  9997
2 55983  42.0020   5.5142 0009177 248.2915 111.6948 15.38791105187109
